stk.v.8.0

BEGIN Ephemeris

NumberOfEphemerisPoints 302
CoordinateSystem Custom Body Satellite/Origin

EphemerisTimePosVel

281.000000 -9.239595 4.991493 -2.603624 0.346543 -0.036618 -0.222691
282.000000 -8.893051 4.954875 -2.826315 0.368468 -0.035756 -0.242897
283.000000 -8.524583 4.919119 -3.069212 0.388849 -0.034906 -0.243118
284.000000 -8.135735 4.884214 -3.312331 0.409405 -0.034950 -0.223297
285.000000 -7.726329 4.849264 -3.535628 0.430835 -0.054868 -0.224161
286.000000 -7.295494 4.794396 -3.759789 0.451088 -0.073741 -0.202096
287.000000 -6.844406 4.720654 -3.961885 0.451363 -0.094713 -0.202158
288.000000 -6.393043 4.625941 -4.164043 0.448927 -0.113625 -0.180460
289.000000 -5.944115 4.512317 -4.344503 0.446640 -0.133336 -0.159465
290.000000 -5.497475 4.378981 -4.503968 0.423373 -0.150877 -0.138506
291.000000 -5.074102 4.228104 -4.642474 0.400024 -0.168058 -0.117336
292.000000 -4.674078 4.060046 -4.759810 0.376774 -0.184798 -0.095707
293.000000 -4.297304 3.875247 -4.855517 0.353656 -0.201251 -0.073714
294.000000 -3.943648 3.673996 -4.929232 0.330643 -0.217586 -0.051523
295.000000 -3.613006 3.456410 -4.980755 0.307711 -0.233965 -0.029278
296.000000 -3.305295 3.222445 -5.010033 0.287042 -0.229750 -0.009146
297.000000 -3.018253 2.992696 -5.019179 0.266176 -0.227743 -0.009871
298.000000 -2.752077 2.764952 -5.029050 0.245272 -0.226174 -0.010553
299.000000 -2.506805 2.538778 -5.039603 0.225436 -0.204151 -0.010627
300.000000 -2.281370 2.334627 -5.050230 0.225385 -0.204152 -0.011159
301.000000 -2.055984 2.130475 -5.061389 0.204775 -0.182933 -0.009260
END Ephemeris